PACE-1                  
1 48909U 21059AG  26159.78969706  .00090625  00000+0  52219-3 0  9995
2 48909  97.6790 356.9928 0000804 332.3687  27.7535 15.78431246276472
YAM-3                   
1 48915U 21059AN  26159.47248469  .00010527  00000+0  20069-3 0  9995
2 48915  97.6997 345.8601 0005785  40.2754 319.8923 15.48360580275649
FARADAY_PHOENIX         
1 48924U 21059AX  26159.52503692  .00128025  00000+0  80723-3 0  9999
2 48924  97.6835 356.6036 0002544 350.4132   9.7083 15.76276797276299
DEMO8 (TENZING)         
1 48951U 21059CA  26159.81050050  .00020004  00000+0  30295-3 0  9993
2 48951  97.7036 352.5940 0006939  26.6125 333.5483 15.54675615276007
NAPA-2                  
1 48963U 21059CN  26159.36496645  .00244268  25449-4  62698-3 0  9991
2 48963  97.6739 357.3057 0002565 253.8269 106.2724 15.95264426276401
FENGYUN 3E              
1 49008U 21062A   26159.88659617 -.00000159  00000+0 -54082-4 0  9994
2 49008  98.7498 163.3872 0002772  99.4909 260.6581 14.19903017255405
ISS (NAUKA)             
1 49044U 21066A   26159.80410962  .00007129  00000+0  13425-3 0  9995
2 49044  51.6336 341.5878 0006923 148.5365 211.6039 15.49672912570498
STARLINK-3100           
1 49144U 21082Q   26159.82880054  .00000131  00000+0  18789-4 0  9994
2 49144  70.0007  64.6544 0002880 273.4952  86.5877 14.98334957259636
CUTE                    
1 49263U 21088D   26159.76449425  .00146319  99447-5  48031-3 0  9998
2 49263  97.4196 258.2588 0007960 248.6128 111.4296 15.90516368261213
2021-091B               
1 49316U 21091B   26159.82314924  .00001315  00000+0  66867-4 0  9998
2 49316  97.4481 347.5256 0015048  71.7453 288.5417 15.18510417257715
SDGSAT 1                
1 49387U 21100A   26159.86973463  .00002794  00000+0  13317-3 0  9993
2 49387  97.2640 207.1283 0007066 333.4097  26.6775 15.19886325254655
TEIKYOSAT-4 (OORURI)    
1 49396U 21102B   26159.50304944  .00002438  00000+0  15587-3 0  9994
2 49396  97.3672 189.3240 0011117 329.9080  30.1510 15.09477838251411
Z-SAT                   
1 49399U 21102E   26159.89356547  .00004280  00000+0  21196-3 0  9995
2 49399  97.3334 195.4684 0014806 277.1094  82.8457 15.18203859252185
HIBARI                  
1 49400U 21102F   26159.83954513  .00009858  00000+0  32536-3 0  9995
2 49400  97.3242 205.8387 0010522 222.4137 137.6292 15.31562545252916
KOSEN-1                 
1 49402U 21102H   26159.03159585  .00007809  00000+0  29937-3 0  9990
2 49402  97.3192 201.3673 0012348 235.0844 124.9235 15.26710328252626
GLOBAL-14               
1 49469U 21106A   26159.77600881  .00028567  00000+0  49426-3 0  9997
2 49469  42.0063 341.0542 0017086 321.6139  38.3489 15.50184743256821
GAOFEN-3 02             
1 49495U 21109A   26159.86231344  .00000039  00000+0  25175-4 0  9993
2 49495  98.4093 168.0774 0003446  36.4827 323.6597 14.42215905239110
GLOBAL-12               
1 49772U 21115BA  26159.51611629  .00030990  00000+0  49309-3 0  9991
2 49772  53.1950  86.2166 0003473  51.2175 308.9146 15.53042953254550
GLOBAL-13               
1 49773U 21115BB  26159.13314256  .00016955  00000+0  35368-3 0  9991
2 49773  53.1969  97.6177 0004205  88.5576 271.5914 15.45687779254360
GLOBAL-17               
1 49949U 21120A   26159.14398119  .00029936  00000+0  48989-3 0  9999
2 49949  41.9937 103.1616 0014140 197.3391 162.6972 15.51778199253490
GLOBAL-16               
1 49950U 21120B   26159.08095039  .00027243  00000+0  48054-3 0  9991
2 49950  41.9945 107.0997 0011954 189.1366 170.9261 15.49742363253435
XW-3 (CAS-9)            
1 50466U 21131B   26159.86312545  .00000394  00000+0  13520-3 0  9995
2 50466  98.4972 252.2979 0005231 115.9447 244.2282 14.41349823233911
ION SCV-004             
1 50993U 22002K   26159.80015147  .00005640  00000+0  19441-3 0  9997
2 50993  97.2839 217.6166 0008069  35.8992 324.2790 15.30370766244010
ETV-A1                  
1 51060U 22002CE  26159.82975942  .00011154  00000+0  27678-3 0  9991
2 51060  97.2880 226.1601 0005438  32.8838 327.2746 15.40509175244556
BRO-5                   
1 51061U 22002CF  26159.84287267  .00030453  00000+0  60522-3 0  9998
2 51061  97.3000 233.4406 0004395   8.5203 351.6121 15.46908611244960
LUDI TANCE 1-01A (L-SA*)
1 51284U 22007A   26159.84499867  .00000583  00000+0  68784-4 0  9991
2 51284  97.8103 167.3835 0001581  90.6749 269.4649 14.88411780237232
LUDI TANCE 1-01B (L-SA*)
1 51822U 22018A   26159.87858904  .00000546  00000+0  64739-4 0  9990
2 51822  97.8109 167.4125 0001607  91.6509 268.4892 14.88408295232470
2022-023F               
1 51951U 22023F   26159.71209286  .00015685  00000+0  62558-3 0  9991
2 51951  63.4454 302.2925 0129324 342.7663  16.9077 15.17938636236420
