OBJECT_NAME,OBJECT_ID,EPOCH,MEAN_MOTION,ECCENTRICITY,INCLINATION,RA_OF_ASC_NODE,ARG_OF_PERICENTER,MEAN_ANOMALY,EPHEMERIS_TYPE,CLASSIFICATION_TYPE,NORAD_CAT_ID,ELEMENT_SET_NO,REV_AT_EPOCH,BSTAR,MEAN_MOTION_DOT,MEAN_MOTION_DDOT
PACE-1,2021-059AG,2026-06-08T18:57:09.825984,15.78431246,.0000804,97.6790,356.9928,332.3687,27.7535,0,U,48909,999,27647,.52219E-3,.90625E-3,0
YAM-3,2021-059AN,2026-06-08T11:20:22.677216,15.48360580,.0005786,97.6997,345.8601,40.2754,319.8923,0,U,48915,999,27564,.20069E-3,.10527E-3,0
FARADAY_PHOENIX,2021-059AX,2026-06-08T12:36:03.189024,15.76276797,.0002545,97.6835,356.6036,350.4132,9.7083,0,U,48924,999,27629,.80723E-3,.128025E-2,0
DEMO8 (TENZING),2021-059CA,2026-06-08T19:27:07.243200,15.54675615,.0006939,97.7036,352.5940,26.6125,333.5483,0,U,48951,999,27600,.30295E-3,.20004E-3,0
NAPA-2,2021-059CN,2026-06-08T08:45:33.101280,15.95264426,.0002566,97.6739,357.3057,253.8269,106.2724,0,U,48963,999,27640,.62698E-3,.244268E-2,.25449E-4
FENGYUN 3E,2021-062A,2026-06-08T21:16:41.909088,14.19903017,.0002772,98.7498,163.3872,99.4909,260.6581,0,U,49008,999,25540,-.54082E-4,-.159E-5,0
ISS (NAUKA),2021-066A,2026-06-08T19:17:55.071168,15.49672912,.0006923,51.6336,341.5878,148.5365,211.6039,0,U,49044,999,57049,.13425E-3,.7129E-4,0
STARLINK-3100,2021-082Q,2026-06-08T19:53:28.366656,14.98334957,.000288,70.0007,64.6544,273.4952,86.5877,0,U,49144,999,25963,.18789E-4,.131E-5,0
CUTE,2021-088D,2026-06-08T18:20:52.303200,15.90516368,.000796,97.4196,258.2588,248.6128,111.4296,0,U,49263,999,26121,.48031E-3,.146319E-2,.99447E-5
2021-091B,2021-091B,2026-06-08T19:45:20.094336,15.18510417,.0015048,97.4481,347.5256,71.7453,288.5417,0,U,49316,999,25771,.66867E-4,.1315E-4,0
SDGSAT 1,2021-100A,2026-06-08T20:52:25.072032,15.19886325,.0007066,97.2640,207.1283,333.4097,26.6775,0,U,49387,999,25465,.13317E-3,.2794E-4,0
TEIKYOSAT-4 (OORURI),2021-102B,2026-06-08T12:04:23.470752,15.09477838,.0011118,97.3672,189.3240,329.9080,30.1510,0,U,49396,999,25141,.15587E-3,.2438E-4,0
Z-SAT,2021-102E,2026-06-08T21:26:44.056608,15.18203859,.0014806,97.3334,195.4684,277.1094,82.8457,0,U,49399,999,25218,.21196E-3,.428E-4,0
HIBARI,2021-102F,2026-06-08T20:08:56.699232,15.31562545,.0010522,97.3242,205.8387,222.4137,137.6292,0,U,49400,999,25291,.32536E-3,.9858E-4,0
KOSEN-1,2021-102H,2026-06-08T00:45:29.881440,15.26710328,.00123482,97.3192,201.3673,235.0844,124.9235,0,U,49402,999,25262,.29937242E-3,.7809E-4,0
GLOBAL-14,2021-106A,2026-06-08T18:37:27.161184,15.50184743,.0017086,42.0063,341.0542,321.6139,38.3489,0,U,49469,999,25682,.49426E-3,.28567E-3,0
GAOFEN-3 02,2021-109A,2026-06-08T20:41:43.881216,14.42215905,.0003446,98.4093,168.0774,36.4827,323.6597,0,U,49495,999,23911,.25175E-4,.39E-6,0
GLOBAL-12,2021-115BA,2026-06-08T12:23:12.446592,15.53042953,.0003474,53.1950,86.2166,51.2175,308.9146,0,U,49772,999,25455,.49309E-3,.3099E-3,0
GLOBAL-13,2021-115BB,2026-06-08T03:11:43.517184,15.45687779,.00042054,53.1969,97.6177,88.5576,271.5914,0,U,49773,999,25436,.35367518E-3,.16955E-3,0
GLOBAL-17,2021-120A,2026-06-08T03:27:19.974816,15.51778199,.00141403,41.9937,103.1616,197.3391,162.6972,0,U,49949,999,25349,.48989462E-3,.29936E-3,0
GLOBAL-16,2021-120B,2026-06-08T01:56:34.113696,15.49742363,.0011954,41.9945,107.0997,189.1366,170.9261,0,U,49950,999,25343,.48053821E-3,.27243E-3,0
XW-3 (CAS-9),2021-131B,2026-06-08T20:42:54.038880,14.41349823,.0005231,98.4972,252.2979,115.9447,244.2282,0,U,50466,999,23391,.1352E-3,.394E-5,0
ION SCV-004,2022-002K,2026-06-08T19:12:13.087008,15.30370766,.0008069,97.2839,217.6166,35.8992,324.2790,0,U,50993,999,24401,.19441E-3,.564E-4,0
ETV-A1,2022-002CE,2026-06-08T19:54:51.213888,15.40509175,.0005438,97.2880,226.1601,32.8838,327.2746,0,U,51060,999,24455,.27678E-3,.11154E-3,0
BRO-5,2022-002CF,2026-06-08T20:13:44.198688,15.46908611,.0004395,97.3000,233.4406,8.5203,351.6121,0,U,51061,999,24496,.60522E-3,.30453E-3,0
LUDI TANCE 1-01A (L-SAR 01A),2022-007A,2026-06-08T20:16:47.885088,14.88411780,.0001581,97.8103,167.3835,90.6749,269.4649,0,U,51284,999,23723,.68784E-4,.583E-5,0
LUDI TANCE 1-01B (L-SAR 01B),2022-018A,2026-06-08T21:05:10.093056,14.88408295,.0001607,97.8109,167.4125,91.6509,268.4892,0,U,51822,999,23247,.64739E-4,.546E-5,0
2022-023F,2022-023F,2026-06-08T17:05:24.823104,15.17938636,.0129324,63.4454,302.2925,342.7663,16.9077,0,U,51951,999,23642,.62558E-3,.15685E-3,0
